{
    "links": {
        "self": "http://www.neowsapp.com/rest/v1/neo/3701885?api_key=iIulBulltgU6a56xZRHN4H3l9WmuAYTsLGpBGhQ2"
    },
    "id": "3701885",
    "neo_reference_id": "3701885",
    "name": "(2014 XQ7)",
    "designation": "2014 XQ7",
    "nasa_jpl_url": "http://ssd.jpl.nasa.gov/sbdb.cgi?sstr=3701885",
    "absolute_magnitude_h": 20.6,
    "estimated_diameter": {
        "kilometers": {
            "estimated_diameter_min": 0.2016299194,
            "estimated_diameter_max": 0.4508582062
        },
        "meters": {
            "estimated_diameter_min": 201.6299194428,
            "estimated_diameter_max": 450.8582061718
        },
        "miles": {
            "estimated_diameter_min": 0.1252869847,
            "estimated_diameter_max": 0.2801502144
        },
        "feet": {
            "estimated_diameter_min": 661.5155049046,
            "estimated_diameter_max": 1479.1936371367
        }
    },
    "is_potentially_hazardous_asteroid": false,
    "close_approach_data": [
        {
            "close_approach_date": "2015-01-16",
            "close_approach_date_full": "2015-Jan-16 02:05",
            "epoch_date_close_approach": 1421373900000,
            "relative_velocity": {
                "kilometers_per_second": "27.0963915586",
                "kilometers_per_hour": "97547.0096110021",
                "miles_per_hour": "60611.9182774585"
            },
            "miss_distance": {
                "astronomical": "0.3242675125",
                "lunar": "126.1400623625",
                "kilometers": "48509729.180198375",
                "miles": "30142547.984052575"
            },
            "orbiting_body": "Earth"
        }
    ],
    "orbital_data": {
        "orbit_id": "5",
        "orbit_determination_date": "2017-04-06 08:36:54",
        "first_observation_date": "2014-12-06",
        "last_observation_date": "2014-12-15",
        "data_arc_in_days": 9,
        "observations_used": 18,
        "orbit_uncertainty": "9",
        "minimum_orbit_intersection": ".311668",
        "jupiter_tisserand_invariant": "2.794",
        "epoch_osculation": "2457003.5",
        "eccentricity": ".748728869324196",
        "semi_major_axis": "2.6181649964919",
        "inclination": "30.97266033462523",
        "ascending_node_longitude": "141.1175516290564",
        "orbital_period": "1547.369189999166",
        "perihelion_distance": ".6578692789643321",
        "perihelion_argument": "13.29998212824199",
        "aphelion_distance": "4.578460714019468",
        "perihelion_time": "2457054.933251342643",
        "mean_anomaly": "348.0339025728169",
        "mean_motion": ".2326529456103452",
        "equinox": "J2000",
        "orbit_class": {
            "orbit_class_type": "APO",
            "orbit_class_description": "Near-Earth asteroid orbits which cross the Earth’s orbit similar to that of 1862 Apollo",
            "orbit_class_range": "a (semi-major axis) > 1.0 AU; q (perihelion) < 1.017 AU"
        }
    },
    "is_sentry_object": false
}